# Made by eph2tle, compiled Feb  2 2025 14:11:09
# Run at Sat Mar  1 14:50:21 2025 UTC
#
#    The following TLEs (Two-Line Elements) were generated by fitting
# a numerically-integrated ephemeris,  based on the orbit given below,
# to the SDP4/SGP4 models.  Each TLE is good for the interval between
# its epoch and the epoch of the subsequent TLE (usually one day).
# The maximum deviation between the numerically integrated ephemerides
# and the TLE-based ephemeris, in kilometers,  is given for each TLE
# as the "worst residual".
#
#    This fitting is done using the 'eph2tle' code packaged with Find_Orb.
# The code has details on how the TLEs were computed :
#
#    https://github.com/Bill-Gray/find_orb/eph2tle.cpp
#
#    Be warned:  the error given is that between the numerically
# integrated ephems and the TLE model.  There will usually be at
# least some additional difference between the ephems and the actual
# motion of the satellite,  especially if the ephemerides are based
# on a short arc.  If the following orbital elements say something
# like "[based on] 10 observations 2015 Jan. 1-13",  and the TLEs
# are for 2015 May,  the extrapolation may be tenuous at best.  If
# your application requires a specific level of accuracy,  you may
# want to contact me;  I can give you some idea as to the fit of the
# underlying data (and possibly TLEs based on newer data).
#
#   You can usually find the underlying observational data,  and the
# fitted orbit,  residuals,  ephemerides,  and sometimes some comments
# about the object,  among the pages listed at
#
#    https://www.projectpluto.com/pluto/mpecs/pseudo.htm
#
#    WARNING:  for this object,  "normal" TLEs cannot be fitted.  (This
# usually means an object with an hyperbolic or nearly-parabolic orbit.)
# For this and similar cases,   an alternative model is used,  in which
# most of the traditional TLE data is replaced by six signed 8-digit hex
# numbers.  These six numbers are a state vector,  numerically integrated
# using a simplified force model.  This is necessary for objects at L2 or
# L1,  and sometimes for objects in high orbits where the SDP4/SGP4 model
# fails.  Some documentation is in 'get_el.cpp' in the source code at
# https://www.github.com/Bill-Gray/sat_code ; look for 'hex' in that file,
# with the actual integration done in 'sdp4.cpp'.  But be aware:  it's my
# own extension,  doesn't work with other code,  and is therefore used
# only when necessary.
#
#    Also,  if you use a TLE outside the "correct" time range (between
# its MJD and that of the next TLE),  all bets are off.  I've carefully
# computed and minimized the worst error over the "correct" time frame,
# but the ephemeris may (or may not) diverge wildly outside of it.
#
# Ephem range: 60733.000000 60764.000000 1.000000
# Created Sat Mar  1 09:50:17 2025
# Ephemeris start: 27 Feb 2025  0:00:00
# Ephemeris end:   30 Mar 2025  0:00:00
# Times are all TDT
# Positions/velocities are in equatorial J2000
# Orbital elements:  2025-038E = NORAD 63103 = Falcon 9-442 Stage 2
#    Perigee 2025 Feb 27.039863 +/- 0.00035192 TT =  0:57:24.1 (JD 2460733.539863)
# Epoch 2025 Mar  1.0 TT = JDT 2460735.5                           Find_Orb
# M  77.654037008 +/- 0.0668          (J2000 equator)
# n  39.616642475 +/- 0.037649        Peri.  215.749984 +/- 0.00759
# a183943.7610 +/- 116.54             Node   357.097655 +/- 0.001663
# e   0.96646047 +/- 1.6964e-5        Incl.   28.453488 +/- 0.001474
# P   9.0869d                H 23.93  G  0.15   U 10.5
# q 6169.386901 +/- 6.0447    Q 361718.1351 +/- 227.71
# 24 of 25 observations 2025 Feb. 28-Mar. 1 (25.9 hr); mean residual 0".657
# LAUNCH at  27 Feb 2025  1:00:02.66 lat -24.31793 lon E60.92483
#
# 1 NoradU COSPAR   Epoch.epoch     dn/dt/2  d2n/dt2/6 BSTAR    T El# C
# 2 NoradU Inclina RAAscNode Eccent  ArgPeri MeanAno  MeanMotion Rev# C

# Worst residual: 275.98 km
# MJD 60733.000000 (2025 Feb 27  0:00)
2025-038E = NORAD 63103 = Falcon 9-442 Stage 2
1 63103U 25038E   25057.99919926 -0002870N +000AXS7P +0005VKXUH 26171
2 63103                          -000EQNW2 -000S6MHE -000FNVVF     06

# Worst residual: 0.74 km
# MJD 60734.000000 (2025 Feb 28  0:00)
2025-038E = NORAD 63103 = Falcon 9-442 Stage 2
1 63103U 25038E   25058.99919926 +00312BWF +000WJ8CZ +000KJ831H 26178
2 63103                          +0006THA5 +00042R6R +0002E39M     02

# Worst residual: 4.13 km
# MJD 60735.000000 (2025 Mar  1  0:00)
2025-038E = NORAD 63103 = Falcon 9-442 Stage 2
1 63103U 25038E   25059.99919926 +0047RCHG +001Q4LK0 +0011PIVXH 26171
2 63103                          +0003I5DC +0002V1T4 +0001N6DD     07

# Worst residual: 29.02 km
# MJD 60736.000000 (2025 Mar  2  0:00)
2025-038E = NORAD 63103 = Falcon 9-442 Stage 2
1 63103U 25038E   25060.99919926 +004TH81I +002ASCXR +001DGLMSH 26171
2 63103                          +0001N8E7 +0001XR2S +000136K5     09

# Worst residual: 8076.06 km
# MJD 60737.000000 (2025 Mar  3  0:00)
2025-038E = NORAD 63103 = Falcon 9-442 Stage 2
1 63103U 25038E   25061.99919926 +0051RQ6V +002NEFVK +001KDO44H 26179
2 63103                          +0000DQ3X +0000WNQ6 +0000GK43     01

# Worst residual: 106.86 km
# MJD 60738.000000 (2025 Mar  4  0:00)
2025-038E = NORAD 63103 = Falcon 9-442 Stage 2
1 63103U 25038E   25062.99919926 +0055ANCB +003Q5NFS +001D0Z05H 26171
2 63103                          -00010ML2 +0008JCML -0000OCAC     08

# Worst residual: 6.21 km
# MJD 60739.000000 (2025 Mar  5  0:00)
2025-038E = NORAD 63103 = Falcon 9-442 Stage 2
1 63103U 25038E   25063.99919926 +004RAXMJ +005MYEXS +0017K62YH 26173
2 63103                          -00022T28 +0007H0ZP -0000NJHV     08

# Worst residual: 1.07 km
# MJD 60740.000000 (2025 Mar  6  0:00)
2025-038E = NORAD 63103 = Falcon 9-442 Stage 2
1 63103U 25038E   25064.99919926 +0046QG6M +007BXOE9 +0011J6MNH 26179
2 63103                          -0002MRJN +0006O0V8 -0000QLTU     03

# Worst residual: 0.25 km
# MJD 60741.000000 (2025 Mar  7  0:00)
2025-038E = NORAD 63103 = Falcon 9-442 Stage 2
1 63103U 25038E   25065.99919926 +003IH34M +008UJIGA +000UUTJ7H 26175
2 63103                          -0002YDAK +0005ZQDX -0000SVYR     04

# Worst residual: 0.19 km
# MJD 60742.000000 (2025 Mar  8  0:00)
2025-038E = NORAD 63103 = Falcon 9-442 Stage 2
1 63103U 25038E   25066.99919926 +002S27KL +00A7SJWS +000NQ7U3H 26179
2 63103                          -000354BF +0005F9MR -0000UEGL     03

# Worst residual: 0.20 km
# MJD 60743.000000 (2025 Mar  9  0:00)
2025-038E = NORAD 63103 = Falcon 9-442 Stage 2
1 63103U 25038E   25067.99919926 +0020ETFS +00BGINR9 +000GB2A9H 26174
2 63103                          -00038WO6 +0004XWL6 -0000VD2B     06

# Worst residual: 0.20 km
# MJD 60744.000000 (2025 Mar 10  0:00)
2025-038E = NORAD 63103 = Falcon 9-442 Stage 2
1 63103U 25038E   25068.99919926 +00183D50 +00CLDXBW +0008PDSUH 26178
2 63103                          -0003ATTH +0004J1D0 -0000VXMM     05

# Worst residual: 0.20 km
# MJD 60745.000000 (2025 Mar 11  0:00)
2025-038E = NORAD 63103 = Falcon 9-442 Stage 2
1 63103U 25038E   25069.99919926 +000FGVV7 +00DMXQBF +000101VUH 26173
2 63103                          -0003BJNO +000466J8 -0000W7ZS     01

# Worst residual: 0.20 km
# MJD 60746.000000 (2025 Mar 12  0:00)
2025-038E = NORAD 63103 = Falcon 9-442 Stage 2
1 63103U 25038E   25070.99919926 -000D860Z +00ELLRC0 -0006QSTUH 26178
2 63103                          -0003BH91 +0003UYL3 -0000WAN4     00

# Worst residual: 0.86 km
# MJD 60747.000000 (2025 Mar 13  0:00)
2025-038E = NORAD 63103 = Falcon 9-442 Stage 2
1 63103U 25038E   25071.99919926 -0015UA09 +00FHQU0H -000EHJ88H 26170
2 63103                          -0003AWHW +0003L320 -0000W77Y     02

# Worst residual: 0.85 km
# MJD 60748.000000 (2025 Mar 14  0:00)
2025-038E = NORAD 63103 = Falcon 9-442 Stage 2
1 63103U 25038E   25072.99919926 -001Y9WWN +00GBNK3G -000M6U3OH 26172
2 63103                          -0003A070 +0003CBS7 -0000VYVO     07

# Worst residual: 0.84 km
# MJD 60749.000000 (2025 Mar 15  0:00)
2025-038E = NORAD 63103 = Falcon 9-442 Stage 2
1 63103U 25038E   25073.99919926 -002QGVSN +00H3KSB2 -000TTMPUH 26178
2 63103                          -00038WXC +00034IAN -0000VMG5     00

# Worst residual: 0.85 km
# MJD 60750.000000 (2025 Mar 16  0:00)
2025-038E = NORAD 63103 = Falcon 9-442 Stage 2
1 63103U 25038E   25074.99919926 -003IDXWG +00HTPZ8Y -0011D0PGH 26175
2 63103                          -00037Q2Z +0002XHDM -0000V6LB     07

# Worst residual: 0.91 km
# MJD 60751.000000 (2025 Mar 17  0:00)
2025-038E = NORAD 63103 = Falcon 9-442 Stage 2
1 63103U 25038E   25075.99919926 -004A0JNC +00II9GPA -0018S8Y0H 26173
2 63103                          -00036I5Q +0002R4R3 -0000UNV9     09

# Worst residual: 1.03 km
# MJD 60752.000000 (2025 Mar 18  0:00)
2025-038E = NORAD 63103 = Falcon 9-442 Stage 2
1 63103U 25038E   25076.99919926 -0051CO57 +00J5CMOD -001G2OTWH 26170
2 63103                          -00035B0Q +0002LCUI -0000U2RS     09

# Worst residual: 1.22 km
# MJD 60753.000000 (2025 Mar 19  0:00)
2025-038E = NORAD 63103 = Falcon 9-442 Stage 2
1 63103U 25038E   25077.99919926 -005SEOJH +00JR42SB -001N7TU1H 26175
2 63103                          -0003462T +0002G2MY -0000TFR4     00

# Worst residual: 1.41 km
# MJD 60754.000000 (2025 Mar 20  0:00)
2025-038E = NORAD 63103 = Falcon 9-442 Stage 2
1 63103U 25038E   25078.99919926 -006J78OU +00KBNQDS -001U797UH 26171
2 63103                          -000334EX +0002B7II -0000SR8P     04

# Worst residual: 1.56 km
# MJD 60755.000000 (2025 Mar 21  0:00)
2025-038E = NORAD 63103 = Falcon 9-442 Stage 2
1 63103U 25038E   25079.99919926 -0079R8PO +00KV2XQF -00210NVVH 26176
2 63103                          -000326VH +00026P6S -0000S1NL     03

# Worst residual: 1.59 km
# MJD 60756.000000 (2025 Mar 22  0:00)
2025-038E = NORAD 63103 = Falcon 9-442 Stage 2
1 63103U 25038E   25080.99919926 -00803R84 +00LDGIDI -0027NUDIH 26171
2 63103                          -00031E4F +00022HLL -0000RBF4     03

# Worst residual: 1.46 km
# MJD 60757.000000 (2025 Mar 23  0:00)
2025-038E = NORAD 63103 = Falcon 9-442 Stage 2
1 63103U 25038E   25081.99919926 -008Q9ZY2 +00LUUSPU -002E4P0IH 26175
2 63103                          -00030QOG +0001YITX -0000QKZM     01

# Worst residual: 1.23 km
# MJD 60758.000000 (2025 Mar 24  0:00)
2025-038E = NORAD 63103 = Falcon 9-442 Stage 2
1 63103U 25038E   25082.99919926 -009GBAFD +00MBBOZ8 -002KF88ZH 26176
2 63103                          -000308WO +0001UR1F -0000PUV7     07

# Worst residual: 1.01 km
# MJD 60759.000000 (2025 Mar 25  0:00)
2025-038E = NORAD 63103 = Falcon 9-442 Stage 2
1 63103U 25038E   25083.99919926 -00A690KM +00MQWNIF -002QJL5LH 26174
2 63103                          -0002ZWZ6 +0001R4DZ -0000P5ME     05

# Worst residual: 0.95 km
# MJD 60760.000000 (2025 Mar 26  0:00)
2025-038E = NORAD 63103 = Falcon 9-442 Stage 2
1 63103U 25038E   25084.99919926 -00AW4KLC +00N5MOR3 -002WI20JH 26179
2 63103                          -0002ZQRS +0001NL11 -0000OHW2     04

# Worst residual: 1.15 km
# MJD 60761.000000 (2025 Mar 27  0:00)
2025-038E = NORAD 63103 = Falcon 9-442 Stage 2
1 63103U 25038E   25085.99919926 -00BLZA2O +00NJID60 -0032B2T2H 26171
2 63103                          -0002ZPS5 +0001K34G -0000NWCH     02

# Worst residual: 1.54 km
# MJD 60762.000000 (2025 Mar 28  0:00)
2025-038E = NORAD 63103 = Falcon 9-442 Stage 2
1 63103U 25038E   25086.99919926 -00CBUA3W +00NWJTS9 -0037Z99PH 26175
2 63103                          -0002ZT00 +0001GKYO -0000NDMU     00

# Worst residual: 1.93 km
# MJD 60763.000000 (2025 Mar 29  0:00)
2025-038E = NORAD 63103 = Falcon 9-442 Stage 2
1 63103U 25038E   25087.99919926 -00D1QETH +00O8QU15 -003DJC6RH 26170
2 63103                          -0002ZYWG +0001D154 -0000MY99     08
Avg worst resid: 274.89 km
Worst residual in entire run: 8076.06 km on MJD 60737.0
       1     3     10    30    100   300   1K    3K    10K   km
    13    12     2     1     0     2     0     0     1     0
